ALOS (DAICHI)           
1 28931U 06002A   26064.89484651  .00002246  00000+0  38460-3 0  9991
2 28931  98.1215  20.8693 0001065  54.0703 306.0601 14.69796405 72927
H-2A R/B                
1 28932U 06002B   26064.38590766  .00011754  00000+0  58982-3 0  9996
2 28932  98.2403 211.0400 0051842 255.7586 103.7883 15.16308743 93783
RESURS-DK 1             
1 29228U 06021A   26064.70023870  .00003818  00000+0  22356-3 0  9997
2 29228  69.9309 247.3433 0002334 165.5355 194.5878 15.12710295 86929
CZ-4B R/B               
1 29507U 06046C   26064.78314909  .00006554  00000+0  33233-3 0  9994
2 29507  97.5598 109.7022 0031648 281.4804  78.2875 15.16857792 59459
CZ-2C R/B               
1 31114U 07010B   26064.78068063  .00000191  00000+0  10693-3 0  9996
2 31114  98.3978 178.2555 0057989 306.1971  53.3852 14.20244652979162
COSMO-SKYMED 1          
1 31598U 07023A   26064.85327231  .00004885  00000+0  43517-3 0  9994
2 31598  97.8862 255.8548 0000886  97.5167 262.6154 14.96498809 14337
COSMOS 2428             
1 31792U 07029A   26064.71178823  .00000061  00000+0  58401-4 0  9993
2 31792  70.9427 211.6924 0008925 281.2343  78.7775 14.12945029963539
SL-16 R/B               
1 31793U 07029B   26064.75543352 -.00000095  00000+0 -24594-4 0  9996
2 31793  70.9757 180.6541 0002372 277.2484 192.7201 14.14833448964813
KORONAS-FOTON           
1 33504U 09003A   26064.61455480  .00014419  00000+0  32328-3 0  9997
2 33504  82.4277 280.1155 0010935 163.4011 196.7596 15.43212499945116
CZ-2C R/B               
1 37731U 11030B   26064.83430981  .00002810  00000+0  35935-3 0  9998
2 37731  97.8541  22.1747 0052801   4.6438  85.1655 14.81205258789528
H-2A R/B                
1 38341U 12025E   26064.84703729  .00005896  00000+0  53350-3 0  9993
2 38341  98.4724  31.5853 0043591 327.1990  32.6524 14.95127657747640
SHIJIAN-16 (SJ-16)      
1 39358U 13057A   26064.87483103  .00000273  00000+0  29543-4 0  9994
2 39358  74.9733 192.3087 0015689 122.3384 237.9326 14.92319915670936
