CCSDS_OMM_VERS = 2.0
CREATION_DATE  = 
ORIGINATOR     = 

OBJECT_NAME    = ALOS (DAICHI)
OBJECT_ID      = 2006-002A
CENTER_NAME    = EARTH
REF_FRAME      = TEME
TIME_SYSTEM    = UTC
MEAN_ELEMENT_THEORY = SGP/SGP4

EPOCH          = 2026-03-05T21:28:34.738464
MEAN_MOTION    = 14.69796405
ECCENTRICITY   = .0001065
INCLINATION    = 98.1215
RA_OF_ASC_NODE = 20.8693
ARG_OF_PERICENTER = 54.0703
MEAN_ANOMALY   = 306.0601

EPHEMERIS_TYPE = 0
CLASSIFICATION_TYPE = U
NORAD_CAT_ID   = 28931
ELEMENT_SET_NO = 999
REV_AT_EPOCH   = 7292
BSTAR          = .3846E-3
MEAN_MOTION_DOT = .2246E-4
MEAN_MOTION_DDOT = 0

CCSDS_OMM_VERS = 2.0
CREATION_DATE  = 
ORIGINATOR     = 

OBJECT_NAME    = H-2A R/B
OBJECT_ID      = 2006-002B
CENTER_NAME    = EARTH
REF_FRAME      = TEME
TIME_SYSTEM    = UTC
MEAN_ELEMENT_THEORY = SGP/SGP4

EPOCH          = 2026-03-05T09:15:42.421824
MEAN_MOTION    = 15.16308743
ECCENTRICITY   = .0051842
INCLINATION    = 98.2403
RA_OF_ASC_NODE = 211.0400
ARG_OF_PERICENTER = 255.7586
MEAN_ANOMALY   = 103.7883

EPHEMERIS_TYPE = 0
CLASSIFICATION_TYPE = U
NORAD_CAT_ID   = 28932
ELEMENT_SET_NO = 999
REV_AT_EPOCH   = 9378
BSTAR          = .58982E-3
MEAN_MOTION_DOT = .11754E-3
MEAN_MOTION_DDOT = 0

CCSDS_OMM_VERS = 2.0
CREATION_DATE  = 
ORIGINATOR     = 

OBJECT_NAME    = RESURS-DK 1
OBJECT_ID      = 2006-021A
CENTER_NAME    = EARTH
REF_FRAME      = TEME
TIME_SYSTEM    = UTC
MEAN_ELEMENT_THEORY = SGP/SGP4

EPOCH          = 2026-03-05T16:48:20.623680
MEAN_MOTION    = 15.12710295
ECCENTRICITY   = .0002334
INCLINATION    = 69.9309
RA_OF_ASC_NODE = 247.3433
ARG_OF_PERICENTER = 165.5355
MEAN_ANOMALY   = 194.5878

EPHEMERIS_TYPE = 0
CLASSIFICATION_TYPE = U
NORAD_CAT_ID   = 29228
ELEMENT_SET_NO = 999
REV_AT_EPOCH   = 8692
BSTAR          = .22356E-3
MEAN_MOTION_DOT = .3818E-4
MEAN_MOTION_DDOT = 0

CCSDS_OMM_VERS = 2.0
CREATION_DATE  = 
ORIGINATOR     = 

OBJECT_NAME    = CZ-4B R/B
OBJECT_ID      = 2006-046C
CENTER_NAME    = EARTH
REF_FRAME      = TEME
TIME_SYSTEM    = UTC
MEAN_ELEMENT_THEORY = SGP/SGP4

EPOCH          = 2026-03-05T18:47:44.081376
MEAN_MOTION    = 15.16857792
ECCENTRICITY   = .0031648
INCLINATION    = 97.5598
RA_OF_ASC_NODE = 109.7022
ARG_OF_PERICENTER = 281.4804
MEAN_ANOMALY   = 78.2875

EPHEMERIS_TYPE = 0
CLASSIFICATION_TYPE = U
NORAD_CAT_ID   = 29507
ELEMENT_SET_NO = 999
REV_AT_EPOCH   = 5945
BSTAR          = .33233E-3
MEAN_MOTION_DOT = .6554E-4
MEAN_MOTION_DDOT = 0

CCSDS_OMM_VERS = 2.0
CREATION_DATE  = 
ORIGINATOR     = 

OBJECT_NAME    = CZ-2C R/B
OBJECT_ID      = 2007-010B
CENTER_NAME    = EARTH
REF_FRAME      = TEME
TIME_SYSTEM    = UTC
MEAN_ELEMENT_THEORY = SGP/SGP4

EPOCH          = 2026-03-05T18:44:10.806432
MEAN_MOTION    = 14.20244652
ECCENTRICITY   = .0057989
INCLINATION    = 98.3978
RA_OF_ASC_NODE = 178.2555
ARG_OF_PERICENTER = 306.1971
MEAN_ANOMALY   = 53.3852

EPHEMERIS_TYPE = 0
CLASSIFICATION_TYPE = U
NORAD_CAT_ID   = 31114
ELEMENT_SET_NO = 999
REV_AT_EPOCH   = 97916
BSTAR          = .10693E-3
MEAN_MOTION_DOT = .191E-5
MEAN_MOTION_DDOT = 0

CCSDS_OMM_VERS = 2.0
CREATION_DATE  = 
ORIGINATOR     = 

OBJECT_NAME    = COSMO-SKYMED 1
OBJECT_ID      = 2007-023A
CENTER_NAME    = EARTH
REF_FRAME      = TEME
TIME_SYSTEM    = UTC
MEAN_ELEMENT_THEORY = SGP/SGP4

EPOCH          = 2026-03-05T20:28:42.727584
MEAN_MOTION    = 14.96498809
ECCENTRICITY   = .0000886
INCLINATION    = 97.8862
RA_OF_ASC_NODE = 255.8548
ARG_OF_PERICENTER = 97.5167
MEAN_ANOMALY   = 262.6154

EPHEMERIS_TYPE = 0
CLASSIFICATION_TYPE = U
NORAD_CAT_ID   = 31598
ELEMENT_SET_NO = 999
REV_AT_EPOCH   = 1433
BSTAR          = .43517E-3
MEAN_MOTION_DOT = .4885E-4
MEAN_MOTION_DDOT = 0

CCSDS_OMM_VERS = 2.0
CREATION_DATE  = 
ORIGINATOR     = 

OBJECT_NAME    = COSMOS 2428
OBJECT_ID      = 2007-029A
CENTER_NAME    = EARTH
REF_FRAME      = TEME
TIME_SYSTEM    = UTC
MEAN_ELEMENT_THEORY = SGP/SGP4

EPOCH          = 2026-03-05T17:04:58.503072
MEAN_MOTION    = 14.12945029
ECCENTRICITY   = .0008925
INCLINATION    = 70.9427
RA_OF_ASC_NODE = 211.6924
ARG_OF_PERICENTER = 281.2343
MEAN_ANOMALY   = 78.7775

EPHEMERIS_TYPE = 0
CLASSIFICATION_TYPE = U
NORAD_CAT_ID   = 31792
ELEMENT_SET_NO = 999
REV_AT_EPOCH   = 96353
BSTAR          = .58401E-4
MEAN_MOTION_DOT = .61E-6
MEAN_MOTION_DDOT = 0

CCSDS_OMM_VERS = 2.0
CREATION_DATE  = 
ORIGINATOR     = 

OBJECT_NAME    = SL-16 R/B
OBJECT_ID      = 2007-029B
CENTER_NAME    = EARTH
REF_FRAME      = TEME
TIME_SYSTEM    = UTC
MEAN_ELEMENT_THEORY = SGP/SGP4

EPOCH          = 2026-03-05T18:07:49.456128
MEAN_MOTION    = 14.14833448
ECCENTRICITY   = .0002372
INCLINATION    = 70.9757
RA_OF_ASC_NODE = 180.6541
ARG_OF_PERICENTER = 277.2484
MEAN_ANOMALY   = 192.7201

EPHEMERIS_TYPE = 0
CLASSIFICATION_TYPE = U
NORAD_CAT_ID   = 31793
ELEMENT_SET_NO = 999
REV_AT_EPOCH   = 96481
BSTAR          = -.24594E-4
MEAN_MOTION_DOT = -.95E-6
MEAN_MOTION_DDOT = 0

CCSDS_OMM_VERS = 2.0
CREATION_DATE  = 
ORIGINATOR     = 

OBJECT_NAME    = KORONAS-FOTON
OBJECT_ID      = 2009-003A
CENTER_NAME    = EARTH
REF_FRAME      = TEME
TIME_SYSTEM    = UTC
MEAN_ELEMENT_THEORY = SGP/SGP4

EPOCH          = 2026-03-05T14:44:57.534720
MEAN_MOTION    = 15.43212499
ECCENTRICITY   = .0010935
INCLINATION    = 82.4277
RA_OF_ASC_NODE = 280.1155
ARG_OF_PERICENTER = 163.4011
MEAN_ANOMALY   = 196.7596

EPHEMERIS_TYPE = 0
CLASSIFICATION_TYPE = U
NORAD_CAT_ID   = 33504
ELEMENT_SET_NO = 999
REV_AT_EPOCH   = 94511
BSTAR          = .32328E-3
MEAN_MOTION_DOT = .14419E-3
MEAN_MOTION_DDOT = 0

CCSDS_OMM_VERS = 2.0
CREATION_DATE  = 
ORIGINATOR     = 

OBJECT_NAME    = CZ-2C R/B
OBJECT_ID      = 2011-030B
CENTER_NAME    = EARTH
REF_FRAME      = TEME
TIME_SYSTEM    = UTC
MEAN_ELEMENT_THEORY = SGP/SGP4

EPOCH          = 2026-03-05T20:01:24.367584
MEAN_MOTION    = 14.81205258
ECCENTRICITY   = .0052801
INCLINATION    = 97.8541
RA_OF_ASC_NODE = 22.1747
ARG_OF_PERICENTER = 4.6438
MEAN_ANOMALY   = 85.1655

EPHEMERIS_TYPE = 0
CLASSIFICATION_TYPE = U
NORAD_CAT_ID   = 37731
ELEMENT_SET_NO = 999
REV_AT_EPOCH   = 78952
BSTAR          = .35935E-3
MEAN_MOTION_DOT = .281E-4
MEAN_MOTION_DDOT = 0

CCSDS_OMM_VERS = 2.0
CREATION_DATE  = 
ORIGINATOR     = 

OBJECT_NAME    = H-2A R/B
OBJECT_ID      = 2012-025E
CENTER_NAME    = EARTH
REF_FRAME      = TEME
TIME_SYSTEM    = UTC
MEAN_ELEMENT_THEORY = SGP/SGP4

EPOCH          = 2026-03-05T20:19:44.021856
MEAN_MOTION    = 14.95127657
ECCENTRICITY   = .0043591
INCLINATION    = 98.4724
RA_OF_ASC_NODE = 31.5853
ARG_OF_PERICENTER = 327.1990
MEAN_ANOMALY   = 32.6524

EPHEMERIS_TYPE = 0
CLASSIFICATION_TYPE = U
NORAD_CAT_ID   = 38341
ELEMENT_SET_NO = 999
REV_AT_EPOCH   = 74764
BSTAR          = .5335E-3
MEAN_MOTION_DOT = .5896E-4
MEAN_MOTION_DDOT = 0

CCSDS_OMM_VERS = 2.0
CREATION_DATE  = 
ORIGINATOR     = 

OBJECT_NAME    = SHIJIAN-16 (SJ-16)
OBJECT_ID      = 2013-057A
CENTER_NAME    = EARTH
REF_FRAME      = TEME
TIME_SYSTEM    = UTC
MEAN_ELEMENT_THEORY = SGP/SGP4

EPOCH          = 2026-03-05T20:59:45.400992
MEAN_MOTION    = 14.92319915
ECCENTRICITY   = .0015689
INCLINATION    = 74.9733
RA_OF_ASC_NODE = 192.3087
ARG_OF_PERICENTER = 122.3384
MEAN_ANOMALY   = 237.9326

EPHEMERIS_TYPE = 0
CLASSIFICATION_TYPE = U
NORAD_CAT_ID   = 39358
ELEMENT_SET_NO = 999
REV_AT_EPOCH   = 67093
BSTAR          = .29543E-4
MEAN_MOTION_DOT = .273E-5
MEAN_MOTION_DDOT = 0

